NORAD_CAT_ID,OBJECT_NAME,OBJECT_TYPE,EPOCH,MEAN_MOTION,ECCENTRICITY,INCLINATION,RA_OF_ASC_NODE,ARG_OF_PERICENTER,MEAN_ANOMALY,BSTAR,MEAN_MOTION_DOT,MEAN_MOTION_DDOT,TLE_LINE0,TLE_LINE1,TLE_LINE2,SEMIMAJOR_AXIS,PERIOD,APOGEE,PERIGEE,DECAYED
52287.0,STARLINK-3822,PAYLOAD,2022-11-14 18:49:44,15.08848379,0.0001977,53.2161,145.0926,54.0603,306.0572,4.6524e-05,4.52e-06,0.0,0 STARLINK-3822,1 52287U 22041AC  22318.78454261  .00000452  00000-0  46524-4 0  9992,2 52287  53.2161 145.0926 0001977  54.0603 306.0572 15.08848379 31564,6917.855,95.437,541.087,538.352,0.0
52287.0,STARLINK-3822,PAYLOAD,2022-11-14 23:35:53,15.08850696,0.0001979,53.2161,144.2005,53.8854,306.2321,2.4212e-05,9.7e-07,0.0,0 STARLINK-3822,1 52287U 22041AC  22318.98326025  .00000097  00000-0  24212-4 0  9995,2 52287  53.2161 144.2005 0001979  53.8854 306.2321 15.08850696 32818,6917.848000000001,95.437,541.082,538.344,0.0
52287.0,STARLINK-3822,PAYLOAD,2022-11-15 18:40:30,15.08851492,0.0002016,53.2161,140.6322,54.1651,305.9528,0.00011878,1.603e-05,0.0,0 STARLINK-3822,1 52287U 22041AC  22319.77813036  .00001603  00000-0  11878-3 0  9993,2 52287  53.2161 140.6322 0002016  54.1651 305.9528 15.08851492 31710,6917.845,95.437,541.105,538.316,0.0
52287.0,STARLINK-3822,PAYLOAD,2022-11-16 12:09:46,15.08837133,0.0002087,53.2158,137.3618,55.0551,305.0637,-4.6449e-05,-1.027e-05,0.0,0 STARLINK-3822,1 52287U 22041AC  22320.50678242 -.00001027  00000-0 -46449-4 0  9999,2 52287  53.2158 137.3618 0002087  55.0551 305.0637 15.08837133 33040,6917.889,95.438,541.198,538.31,0.0
52287.0,STARLINK-3822,PAYLOAD,2022-11-16 18:31:19,15.08823694,0.0001871,53.2162,136.171,49.4982,310.6173,-0.00015336,-2.727e-05,0.0,0 STARLINK-3822,1 52287U 22041AC  22320.77175484 -.00002727  00000-0 -15336-3 0  9996,2 52287  53.2162 136.1710 0001871  49.4982 310.6173 15.08823694 33088,6917.93,95.439,541.09,538.501,0.0
52287.0,STARLINK-3822,PAYLOAD,2022-11-16 20:06:42,15.08822907,0.000196,53.2165,135.8749,52.6278,307.4892,-0.00017022,-2.995e-05,0.0,0 STARLINK-3822,1 52287U 22041AC  22320.83799688 -.00002995  00000-0 -17022-3 0  9992,2 52287  53.2165 135.8749 0001960  52.6278 307.4892 15.08822907 31875,6917.933000000001,95.439,541.154,538.442,0.0
52287.0,STARLINK-3822,PAYLOAD,2022-11-17 23:08:14,15.08840668,0.0002147,53.2165,130.8186,47.5429,312.5744,-3.042e-06,-3.37e-06,0.0,0 STARLINK-3822,1 52287U 22041AC  22321.96406198 -.00000337  00000-0 -30420-5 0  9995,2 52287  53.2165 130.8186 0002147  47.5429 312.5744 15.08840668 33266,6917.878000000002,95.438,541.229,538.258,0.0
52287.0,STARLINK-3822,PAYLOAD,2022-11-18 11:51:19,15.08835146,0.0001801,53.2157,128.4404,47.8222,312.2923,0.00014766,2.062e-05,0.0,0 STARLINK-3822,1 52287U 22041AC  22322.49398077  .00002062  00000-0  14766-3 0  9998,2 52287  53.2157 128.4404 0001801  47.8222 312.2923 15.08835146 32128,6917.895,95.438,541.006,538.514,0.0
52287.0,STARLINK-3822,PAYLOAD,2022-11-18 18:12:52,15.08837631,0.000182,53.2158,127.2508,49.1073,311.0076,0.00015004,2.1e-05,0.0,0 STARLINK-3822,1 52287U 22041AC  22322.75894003  .00002100  00000-0  15004-3 0  9996,2 52287  53.2158 127.2508 0001820  49.1073 311.0076 15.08837631 32162,6917.888000000001,95.438,541.012,538.494,0.0
52287.0,STARLINK-3822,PAYLOAD,2022-11-18 22:59:01,15.0883533,0.0001898,53.2165,126.3579,49.6884,310.4273,0.00021461,3.129e-05,0.0,0 STARLINK-3822,1 52287U 22041AC  22322.95766000  .00003129  00000-0  21461-3 0  9999,2 52287  53.2165 126.3579 0001898  49.6884 310.4273 15.08835330 32197,6917.895,95.438,541.073,538.447,0.0
52287.0,STARLINK-3822,PAYLOAD,2022-11-19 18:03:39,15.08843809,0.0001921,53.2167,122.7894,49.2099,310.906,5.8877e-05,6.49e-06,0.0,0 STARLINK-3822,1 52287U 22041AC  22323.75253899  .00000649  00000-0  58877-4 0  9991,2 52287  53.2167 122.7894 0001921  49.2099 310.9060 15.08843809 33538,6917.869000000002,95.437,541.063,538.405,0.0
52287.0,STARLINK-3822,PAYLOAD,2022-11-20 09:57:30,15.08843687,0.0001828,53.2164,119.816,48.2951,311.8197,3.8454e-05,3.24e-06,0.0,0 STARLINK-3822,1 52287U 22041AC  22324.41493843  .00000324  00000-0  38454-4 0  9999,2 52287  53.2164 119.8160 0001828  48.2951 311.8197 15.08843687 32411,6917.869000000002,95.437,540.999,538.47,0.0
52287.0,STARLINK-3822,PAYLOAD,2022-11-20 17:54:26,15.08846945,0.0001822,53.2164,118.3292,48.4766,311.6382,2.55e-05,1.18e-06,0.0,0 STARLINK-3822,1 52287U 22041AC  22324.74613529  .00000118  00000-0  25500-4 0  9999,2 52287  53.2164 118.3292 0001822  48.4766 311.6382 15.08846945 32460,6917.859,95.437,540.985,538.464,0.0
52287.0,STARLINK-3822,PAYLOAD,2022-11-21 03:26:44,15.08851178,0.000185,53.2166,116.545,48.3738,311.7412,3.4646e-05,2.63e-06,0.0,0 STARLINK-3822,1 52287U 22041AC  22325.14356967  .00000263  00000-0  34646-4 0  9996,2 52287  53.2166 116.5450 0001850  48.3738 311.7412 15.08851178 33748,6917.846,95.437,540.991,538.431,0.0
52287.0,STARLINK-3822,PAYLOAD,2022-11-21 11:23:40,15.08844864,0.0001901,53.2167,115.0583,50.3682,309.7477,2.4817e-05,1.07e-06,0.0,0 STARLINK-3822,1 52287U 22041AC  22325.47477311  .00000107  00000-0  24817-4 0  9995,2 52287  53.2167 115.0583 0001901  50.3682 309.7477 15.08844864 33795,6917.866,95.437,541.0459999999998,538.415,0.0
52287.0,STARLINK-3822,PAYLOAD,2022-11-21 17:45:13,15.08832025,0.0001652,53.2168,113.8689,47.3688,312.7443,-3.3576e-05,-8.22e-06,0.0,0 STARLINK-3822,1 52287U 22041AC  22325.73974262 -.00000822  00000-0 -33576-4 0  9999,2 52287  53.2168 113.8689 0001652  47.3688 312.7443 15.08832025 33832,6917.905,95.438,540.913,538.627,0.0
52287.0,STARLINK-3822,PAYLOAD,2022-11-22 03:17:32,15.08831595,0.0001667,53.2169,112.0848,47.5283,312.585,-3.595e-05,-8.599999999999999e-06,0.0,0 STARLINK-3822,1 52287U 22041AC  22326.13718453 -.00000860  00000-0 -35950-4 0  9992,2 52287  53.2169 112.0848 0001667  47.5283 312.5850 15.08831595 32672,6917.906,95.438,540.924,538.618,0.0
52287.0,STARLINK-3822,PAYLOAD,2022-11-22 16:00:37,15.08839349,0.000186,53.2167,109.7061,45.4113,314.7031,-1.6448e-06,-3.14e-06,0.0,0 STARLINK-3822,1 52287U 22041AC  22326.66710011 -.00000314  00000-0 -16448-5 0  9998,2 52287  53.2167 109.7061 0001860  45.4113 314.7031 15.08839349 33978,6917.882,95.438,541.034,538.461,0.0
52287.0,STARLINK-3822,PAYLOAD,2022-11-23 09:29:51,15.08851386,0.000181,53.2165,106.4351,40.9171,319.1957,-4.1996e-05,-9.57e-06,0.0,0 STARLINK-3822,1 52287U 22041AC  22327.39573221 -.00000957  00000-0 -41996-4 0  9997,2 52287  53.2165 106.4351 0001810  40.9171 319.1957 15.08851386 34085,6917.846,95.437,540.9630000000002,538.4580000000002,0.0
52287.0,STARLINK-3822,PAYLOAD,2022-11-23 15:51:23,15.08854896,0.0001843,53.2166,105.2457,41.4726,318.6406,-2.261800000000001e-05,-6.48e-06,0.0,0 STARLINK-3822,1 52287U 22041AC  22327.66068768 -.00000648  00000-0 -22618-4 0  9999,2 52287  53.2166 105.2457 0001843  41.4726 318.6406 15.08854896 32909,6917.835,95.437,540.975,538.425,0.0
52287.0,STARLINK-3822,PAYLOAD,2022-11-24 09:20:39,15.08837378,0.0001979,53.2159,101.9759,35.7235,324.3889,-6.9227e-06,-3.98e-06,0.0,0 STARLINK-3822,1 52287U 22041AC  22328.38934285 -.00000398  00000-0 -69227-5 0  9995,2 52287  53.2159 101.9759 0001979  35.7235 324.3889 15.08837378 33018,6917.888000000001,95.438,541.122,538.384,0.0
52287.0,STARLINK-3822,PAYLOAD,2022-11-24 12:31:25,15.08848664,0.0001907,53.2173,101.3811,28.3313,331.7783,-9.9753e-05,-1.876e-05,0.0,0 STARLINK-3822,1 52287U 22041AC  22328.52181993 -.00001876  00000-0 -99753-4 0  9999,2 52287  53.2173 101.3811 0001907  28.3313 331.7783 15.08848664 34255,6917.854,95.437,541.038,538.4,0.0
52287.0,STARLINK-3822,PAYLOAD,2022-11-24 15:42:11,15.08841434,0.0001813,53.2168,100.7849,38.5073,321.6049,4.8334e-05,4.81e-06,0.0,0 STARLINK-3822,1 52287U 22041AC  22328.65429841  .00000481  00000-0  48334-4 0  9998,2 52287  53.2168 100.7849 0001813  38.5073 321.6049 15.08841434 33053,6917.876,95.437,540.995,538.487,0.0
52287.0,STARLINK-3822,PAYLOAD,2022-11-25 12:22:11,15.08858215,0.000231,53.2169,96.9178,52.6599,307.4603,-0.00016507,-2.916e-05,0.0,0 STARLINK-3822,1 52287U 22041AC  22329.51541336 -.00002916  00000-0 -16507-3 0  9991,2 52287  53.2169  96.9178 0002310  52.6599 307.4603 15.08858215 33185,6917.825,95.436,541.288,538.092,0.0
52287.0,STARLINK-3822,PAYLOAD,2022-11-25 15:32:58,15.08845833,0.0001854,53.2171,96.3233,42.9656,317.148,1.0599e-05,-1.19e-06,0.0,0 STARLINK-3822,1 52287U 22041AC  22329.64789451 -.00000119  00000-0  10599-4 0  9995,2 52287  53.2171  96.3233 0001854  42.9656 317.1480 15.08845833 34423,6917.863,95.437,541.01,538.445,0.0
52287.0,STARLINK-3822,PAYLOAD,2022-11-26 09:02:12,15.0884446,0.000185,53.2169,93.0517,37.6585,322.4536,5.7948e-05,6.34e-06,0.0,0 STARLINK-3822,1 52287U 22041AC  22330.37653247  .00000634  00000-0  57948-4 0  9990,2 52287  53.2169  93.0517 0001850  37.6585 322.4536 15.08844460 33310,6917.8669999999975,95.437,541.012,538.452,0.0
52287.0,STARLINK-3822,PAYLOAD,2022-11-26 18:34:31,15.08847329,0.0001895,53.2172,91.2689,45.0012,315.1133,-5.8721e-05,-1.223e-05,0.0,0 STARLINK-3822,1 52287U 22041AC  22330.77397344 -.00001223  00000-0 -58721-4 0  9994,2 52287  53.2172  91.2689 0001895  45.0012 315.1133 15.08847329 34591,6917.858,95.437,541.034,538.4119999999998,0.0
52287.0,STARLINK-3822,PAYLOAD,2022-11-27 08:52:59,15.08836373,0.0002,53.2172,88.5925,37.1472,322.9658,3.8416e-05,3.23e-06,0.0,0 STARLINK-3822,1 52287U 22041AC  22331.37013650  .00000323  00000-0  38416-4 0  9993,2 52287  53.2172  88.5925 0002000  37.1472 322.9658 15.08836373 34689,6917.891,95.438,541.14,538.373,0.0
52287.0,STARLINK-3822,PAYLOAD,2022-11-27 18:25:18,15.08842039,0.0002204,53.2176,86.8088,40.4088,319.7067,-0.00017073,-3.005e-05,0.0,0 STARLINK-3822,1 52287U 22041AC  22331.76757965 -.00003005  00000-0 -17073-3 0  9997,2 52287  53.2176  86.8088 0002204  40.4088 319.7067 15.08842039 33526,6917.874,95.437,541.264,538.214,0.0
